QIANFAN-73              
1 63159U 25046A   25284.16873334  .00000121  00000+0  16853-3 0  9996
2 63159  88.9802 326.4995 0013083 309.3295  50.6696 13.50968670 38968
QIANFAN-74              
1 63160U 25046B   25284.15227291  .00000135  00000+0  19047-3 0  9995
2 63160  88.9802 326.3895 0002209 101.1679 258.9721 13.50970581 39024
QIANFAN-75              
1 63161U 25046C   25284.13989291  .00000072  00000+0  92365-4 0  9994
2 63161  88.9803 326.6234 0014228 312.4588  47.5359 13.50978020 38895
QIANFAN-76              
1 63162U 25046D   25284.20989169 -.00000023  00000+0 -54270-4 0  9998
2 63162  88.9796 326.5968 0011874 313.7252  46.2915 13.50971405 38913
QIANFAN-77              
1 63163U 25046E   25284.18618755  .00000357  00000+0  25063-3 0  9991
2 63163  88.9799 325.1204 0012458 275.9345  84.0411 13.96067918 39722
QIANFAN-78              
1 63164U 25046F   25284.17700002  .00000139  00000+0  19621-3 0  9999
2 63164  88.9802 326.4652 0013243 315.9471  44.0624 13.50970955 38980
QIANFAN-79              
1 63165U 25046G   25284.20567707  .00000136  00000+0  19266-3 0  9999
2 63165  88.9806 326.5673 0012890 314.0163  45.9925 13.50970072 38933
QIANFAN-80              
1 63166U 25046H   25284.14818777  .00000170  00000+0  24463-3 0  9992
2 63166  88.9802 326.2818 0011977 319.7299  40.2963 13.50970581 39087
